{
  "type": "FeatureCollection",
  "features": [
    {
      "type": "Feature",
      "properties": {
        "norad_id": 33376,
        "name": "GALAXY 19 (G-19)",
        "group": "intelsat",
        "lat": 0.02448591660848199,
        "lon": 117.92520858403549,
        "alt_km": 35795.73145951475,
        "timestamp": "2025-12-11T08:58:26.782279+00:00",
        "meta_object_name": "GALAXY 19 (G-19)",
        "meta_object_id": "2008-045A",
        "meta_epoch": "2025-12-11T05:00:38.584224",
        "meta_mean_motion": 1.00269711,
        "meta_eccentricity": 0.0002698,
        "meta_inclination": 0.0167,
        "meta_ra_of_asc_node": 344.1002,
        "meta_arg_of_pericenter": 276.3628,
        "meta_mean_anomaly": 157.8728,
        "meta_ephemeris_type": 0,
        "meta_classification_type": "U",
        "meta_norad_cat_id": 33376,
        "meta_element_set_no": 999,
        "meta_rev_at_epoch": 6301,
        "meta_bstar": 0,
        "meta_mean_motion_dot": 0,
        "meta_mean_motion_ddot": 0,
        "tle_line1": "1 33376U 08045A   25345.20877991  .00000000  00000+0  00000+0 0  9999",
        "tle_line2": "2 33376   0.0167 344.1002 0002698 276.3628 157.8728  1.00269711 63016"
      },
      "geometry": {
        "type": "Point",
        "coordinates": [
          117.92520858403549,
          0.02448591660848199
        ]
      }
    },
    {
      "type": "Feature",
      "properties": {
        "norad_id": 35493,
        "name": "FM-5",
        "group": "intelsat",
        "lat": 0.0011736575406243886,
        "lon": 128.79400429370833,
        "alt_km": 35784.665684891486,
        "timestamp": "2025-12-11T08:58:26.782291+00:00",
        "meta_object_name": "FM-5",
        "meta_object_id": "2009-034A",
        "meta_epoch": "2025-12-11T04:52:38.652960",
        "meta_mean_motion": 1.00270578,
        "meta_eccentricity": 5.47e-05,
        "meta_inclination": 0.0153,
        "meta_ra_of_asc_node": 293.7134,
        "meta_arg_of_pericenter": 234.7346,
        "meta_mean_anomaly": 258.736,
        "meta_ephemeris_type": 0,
        "meta_classification_type": "U",
        "meta_norad_cat_id": 35493,
        "meta_element_set_no": 999,
        "meta_rev_at_epoch": 4475,
        "meta_bstar": 0,
        "meta_mean_motion_dot": -1.94e-06,
        "meta_mean_motion_ddot": 0,
        "tle_line1": "1 35493U 09034A   25345.20322515 -.00000194  00000+0  00000+0 0  9992",
        "tle_line2": "2 35493   0.0153 293.7134 0000547 234.7346 258.7360  1.00270578 44750"
      },
      "geometry": {
        "type": "Point",
        "coordinates": [
          128.79400429370833,
          0.0011736575406243886
        ]
      }
    },
    {
      "type": "Feature",
      "properties": {
        "norad_id": 36097,
        "name": "INTELSAT 14 (IS-14)",
        "group": "intelsat",
        "lat": 0.0048058647305249825,
        "lon": 169.91044000551565,
        "alt_km": 35788.28122562828,
        "timestamp": "2025-12-11T08:58:26.782303+00:00",
        "meta_object_name": "INTELSAT 14 (IS-14)",
        "meta_object_id": "2009-064A",
        "meta_epoch": "2025-12-11T00:50:38.713920",
        "meta_mean_motion": 1.00270021,
        "meta_eccentricity": 0.000261,
        "meta_inclination": 0.0102,
        "meta_ra_of_asc_node": 18.0466,
        "meta_arg_of_pericenter": 250.6315,
        "meta_mean_anomaly": 138.984,
        "meta_ephemeris_type": 0,
        "meta_classification_type": "U",
        "meta_norad_cat_id": 36097,
        "meta_element_set_no": 999,
        "meta_rev_at_epoch": 5871,
        "meta_bstar": 0,
        "meta_mean_motion_dot": -2.68e-06,
        "meta_mean_motion_ddot": 0,
        "tle_line1": "1 36097U 09064A   25345.03517030 -.00000268  00000+0  00000+0 0  9997",
        "tle_line2": "2 36097   0.0102  18.0466 0002610 250.6315 138.9840  1.00270021 58713"
      },
      "geometry": {
        "type": "Point",
        "coordinates": [
          169.91044000551565,
          0.0048058647305249825
        ]
      }
    },
    {
      "type": "Feature",
      "properties": {
        "norad_id": 36106,
        "name": "INTELSAT 15 (IS-15)",
        "group": "intelsat",
        "lat": -0.0035138731250007756,
        "lon": -59.89833513132743,
        "alt_km": 35777.733907186426,
        "timestamp": "2025-12-11T08:58:26.782315+00:00",
        "meta_object_name": "INTELSAT 15 (IS-15)",
        "meta_object_id": "2009-067A",
        "meta_epoch": "2025-12-11T01:39:38.885184",
        "meta_mean_motion": 1.00270749,
        "meta_eccentricity": 0.0002387,
        "meta_inclination": 0.024,
        "meta_ra_of_asc_node": 289.4565,
        "meta_arg_of_pericenter": 339.7099,
        "meta_mean_anomaly": 280.9264,
        "meta_ephemeris_type": 0,
        "meta_classification_type": "U",
        "meta_norad_cat_id": 36106,
        "meta_element_set_no": 999,
        "meta_rev_at_epoch": 3934,
        "meta_bstar": 0,
        "meta_mean_motion_dot": -1.79e-06,
        "meta_mean_motion_ddot": 0,
        "tle_line1": "1 36106U 09067A   25345.06920006 -.00000179  00000+0  00000+0 0  9996",
        "tle_line2": "2 36106   0.0240 289.4565 0002387 339.7099 280.9264  1.00270749 39343"
      },
      "geometry": {
        "type": "Point",
        "coordinates": [
          -59.89833513132743,
          -0.0035138731250007756
        ]
      }
    },
    {
      "type": "Feature",
      "properties": {
        "norad_id": 36131,
        "name": "DIRECTV 12",
        "group": "intelsat",
        "lat": 0.0012879163265450382,
        "lon": 112.2266079613012,
        "alt_km": 35787.27265220392,
        "timestamp": "2025-12-11T08:58:26.782327+00:00",
        "meta_object_name": "DIRECTV 12",
        "meta_object_id": "2009-075A",
        "meta_epoch": "2025-12-10T23:19:34.847040",
        "meta_mean_motion": 1.0027091,
        "meta_eccentricity": 4.06e-05,
        "meta_inclination": 0.04,
        "meta_ra_of_asc_node": 149.0502,
        "meta_arg_of_pericenter": 199.7409,
        "meta_mean_anomaly": 338.3242,
        "meta_ephemeris_type": 0,
        "meta_classification_type": "U",
        "meta_norad_cat_id": 36131,
        "meta_element_set_no": 999,
        "meta_rev_at_epoch": 4466,
        "meta_bstar": 0,
        "meta_mean_motion_dot": -9.8e-07,
        "meta_mean_motion_ddot": 0,
        "tle_line1": "1 36131U 09075A   25344.97193110 -.00000098  00000+0  00000+0 0  9990",
        "tle_line2": "2 36131   0.0400 149.0502 0000406 199.7409 338.3242  1.00270910 44665"
      },
      "geometry": {
        "type": "Point",
        "coordinates": [
          112.2266079613012,
          0.0012879163265450382
        ]
      }
    },
    {
      "type": "Feature",
      "properties": {
        "norad_id": 36397,
        "name": "INTELSAT 16 (IS-16)",
        "group": "intelsat",
        "lat": 0.00404073758689204,
        "lon": 138.7243170234786,
        "alt_km": 35790.80015901125,
        "timestamp": "2025-12-11T08:58:26.782338+00:00",
        "meta_object_name": "INTELSAT 16 (IS-16)",
        "meta_object_id": "2010-006A",
        "meta_epoch": "2025-12-11T02:52:38.385408",
        "meta_mean_motion": 1.00272405,
        "meta_eccentricity": 0.000216,
        "meta_inclination": 0.0107,
        "meta_ra_of_asc_node": 319.6045,
        "meta_arg_of_pericenter": 301.3038,
        "meta_mean_anomaly": 146.1385,
        "meta_ephemeris_type": 0,
        "meta_classification_type": "U",
        "meta_norad_cat_id": 36397,
        "meta_element_set_no": 999,
        "meta_rev_at_epoch": 5776,
        "meta_bstar": 0,
        "meta_mean_motion_dot": -2.39e-06,
        "meta_mean_motion_ddot": 0,
        "tle_line1": "1 36397U 10006A   25345.11988872 -.00000239  00000+0  00000+0 0  9991",
        "tle_line2": "2 36397   0.0107 319.6045 0002160 301.3038 146.1385  1.00272405 57767"
      },
      "geometry": {
        "type": "Point",
        "coordinates": [
          138.7243170234786,
          0.00404073758689204
        ]
      }
    },
    {
      "type": "Feature",
      "properties": {
        "norad_id": 37185,
        "name": "XM-5",
        "group": "intelsat",
        "lat": 0.006903439336563548,
        "lon": 99.72333356812632,
        "alt_km": 35782.56763030895,
        "timestamp": "2025-12-11T08:58:26.782350+00:00",
        "meta_object_name": "XM-5",
        "meta_object_id": "2010-053A",
        "meta_epoch": "2025-12-10T23:47:38.630976",
        "meta_mean_motion": 1.00269536,
        "meta_eccentricity": 0.00015,
        "meta_inclination": 0.0597,
        "meta_ra_of_asc_node": 272.8413,
        "meta_arg_of_pericenter": 236.063,
        "meta_mean_anomaly": 172.7614,
        "meta_ephemeris_type": 0,
        "meta_classification_type": "U",
        "meta_norad_cat_id": 37185,
        "meta_element_set_no": 999,
        "meta_rev_at_epoch": 5559,
        "meta_bstar": 0,
        "meta_mean_motion_dot": -1.7e-07,
        "meta_mean_motion_ddot": 0,
        "tle_line1": "1 37185U 10053A   25344.99141934 -.00000017  00000+0  00000+0 0  9998",
        "tle_line2": "2 37185   0.0597 272.8413 0001500 236.0630 172.7614  1.00269536 55594"
      },
      "geometry": {
        "type": "Point",
        "coordinates": [
          99.72333356812632,
          0.006903439336563548
        ]
      }
    }
  ]
}